STARLINK-6362           
1 57350U 23099Y   25225.49985185 -.00002373  00000+0 -16068-3 0  9998
2 57350  43.0045 287.6885 0001299 266.2246  93.8448 15.02532271114944
STARLINK-6331           
1 57351U 23099Z   25225.49061231 -.00005697  00000+0 -40693-3 0  9999
2 57351  43.0051 299.7862 0001587 289.7587  70.3084 15.02541462114802
STARLINK-6297           
1 57352U 23099AA  25225.22726565  .00001587  00000+0  13252-3 0  9992
2 57352  43.0032 289.0835 0001142 263.6271  96.4442 15.02546668114903
STARLINK-6324           
1 57353U 23099AB  25225.48838806  .00001935  00000+0  15831-3 0  9995
2 57353  43.0041 299.7673 0001117 263.5536  96.5180 15.02534748114802
STARLINK-6293           
1 57354U 23099AC  25225.48430907  .00000528  00000+0  54125-4 0  9993
2 57354  43.0051 287.5701 0001292 271.5460  88.5234 15.02533973114945
STARLINK-6276           
1 57355U 23099AD  25225.49652263  .00000670  00000+0  64657-4 0  9995
2 57355  43.0039 287.6649 0001372 281.3660  78.7028 15.02535374114943
STARLINK-6355           
1 57356U 23099AE  25225.48319489  .00000593  00000+0  58968-4 0  9997
2 57356  43.0039 287.5592 0001504 273.9844  86.0827 15.02537232114942
STARLINK-5600           
1 57357U 23099AF  25225.55745073  .00001203  00000+0  10408-3 0  9993
2 57357  43.0041 287.2597 0001318 271.2422  88.8269 15.02537804114950
STARLINK-6299           
1 57358U 23099AG  25225.47765895  .00001188  00000+0  10299-3 0  9999
2 57358  43.0030 287.5217 0001298 271.5426  88.5267 15.02534212115681
STARLINK-6347           
1 57359U 23099AH  25225.49427274  .00004941  00000+0  38024-3 0  9994
2 57359  43.0033 287.6457 0000684 283.8507  76.2259 15.02567344114941
STARLINK-6348           
1 57360U 23099AJ  25225.47099481  .00000069  00000+0  20184-4 0  9995
2 57360  43.0063 287.4707 0001997 271.1884  88.8730 15.02531891114949
STARLINK-6340           
1 57361U 23099AK  25225.54634283  .00000345  00000+0  40603-4 0  9994
2 57361  43.0034 287.1770 0001430 272.6557  87.4122 15.02538936114958
STARLINK-6343           
1 57362U 23099AL  25225.46766048 -.00000342  00000+0 -10226-4 0  9998
2 57362  43.0034 287.4423 0001251 268.6507  91.4192 15.02533310114940
STARLINK-6356           
1 57363U 23099AM  25225.47431673  .00000373  00000+0  42719-4 0  9997
2 57363  43.0026 287.4922 0001392 274.3800  85.6883 15.02538992114945
STARLINK-6338           
1 57364U 23099AN  25225.53302498  .00000547  00000+0  55546-4 0  9992
2 57364  43.0042 287.0724 0001254 276.2863  83.7837 15.02536626114958
STARLINK-5007           
1 57365U 23099AP  25225.45656315  .00000994  00000+0  88612-4 0  9990
2 57365  43.0043 287.3531 0001309 267.3762  92.6930 15.02536024114943
STARLINK-6174           
1 57366U 23099AQ  25225.45988686  .00000676  00000+0  65076-4 0  9996
2 57366  43.0033 287.3838 0001219 272.0129  88.0574 15.02536810114949
