[{"OBJECT_NAME":"STARLINK-6362","OBJECT_ID":"2023-099Y","EPOCH":"2025-08-13T11:59:47.199840","MEAN_MOTION":15.02532271,"ECCENTRICITY":0.0001299,"INCLINATION":43.0045,"RA_OF_ASC_NODE":287.6885,"ARG_OF_PERICENTER":266.2246,"MEAN_ANOMALY":93.8448,"EPHEMERIS_TYPE":0,"CLASSIFICATION_TYPE":"U","NORAD_CAT_ID":57350,"ELEMENT_SET_NO":999,"REV_AT_EPOCH":11494,"BSTAR":-0.00016068,"MEAN_MOTION_DOT":-2.373e-5,"MEAN_MOTION_DDOT":0},{"OBJECT_NAME":"STARLINK-6331","OBJECT_ID":"2023-099Z","EPOCH":"2025-08-13T11:46:28.903584","MEAN_MOTION":15.02541462,"ECCENTRICITY":0.0001587,"INCLINATION":43.0051,"RA_OF_ASC_NODE":299.7862,"ARG_OF_PERICENTER":289.7587,"MEAN_ANOMALY":70.3084,"EPHEMERIS_TYPE":0,"CLASSIFICATION_TYPE":"U","NORAD_CAT_ID":57351,"ELEMENT_SET_NO":999,"REV_AT_EPOCH":11480,"BSTAR":-0.00040693,"MEAN_MOTION_DOT":-5.697e-5,"MEAN_MOTION_DDOT":0},{"OBJECT_NAME":"STARLINK-6297","OBJECT_ID":"2023-099AA","EPOCH":"2025-08-13T05:27:15.752160","MEAN_MOTION":15.02546668,"ECCENTRICITY":0.0001142,"INCLINATION":43.0032,"RA_OF_ASC_NODE":289.0835,"ARG_OF_PERICENTER":263.6271,"MEAN_ANOMALY":96.4442,"EPHEMERIS_TYPE":0,"CLASSIFICATION_TYPE":"U","NORAD_CAT_ID":57352,"ELEMENT_SET_NO":999,"REV_AT_EPOCH":11490,"BSTAR":0.00013252,"MEAN_MOTION_DOT":1.587e-5,"MEAN_MOTION_DDOT":0},{"OBJECT_NAME":"STARLINK-6324","OBJECT_ID":"2023-099AB","EPOCH":"2025-08-13T11:43:16.728384","MEAN_MOTION":15.02534748,"ECCENTRICITY":0.0001117,"INCLINATION":43.0041,"RA_OF_ASC_NODE":299.7673,"ARG_OF_PERICENTER":263.5536,"MEAN_ANOMALY":96.518,"EPHEMERIS_TYPE":0,"CLASSIFICATION_TYPE":"U","NORAD_CAT_ID":57353,"ELEMENT_SET_NO":999,"REV_AT_EPOCH":11480,"BSTAR":0.00015831,"MEAN_MOTION_DOT":1.935e-5,"MEAN_MOTION_DDOT":0},{"OBJECT_NAME":"STARLINK-6293","OBJECT_ID":"2023-099AC","EPOCH":"2025-08-13T11:37:24.303648","MEAN_MOTION":15.02533973,"ECCENTRICITY":0.0001292,"INCLINATION":43.0051,"RA_OF_ASC_NODE":287.5701,"ARG_OF_PERICENTER":271.546,"MEAN_ANOMALY":88.5234,"EPHEMERIS_TYPE":0,"CLASSIFICATION_TYPE":"U","NORAD_CAT_ID":57354,"ELEMENT_SET_NO":999,"REV_AT_EPOCH":11494,"BSTAR":5.4125e-5,"MEAN_MOTION_DOT":5.28e-6,"MEAN_MOTION_DDOT":0},{"OBJECT_NAME":"STARLINK-6276","OBJECT_ID":"2023-099AD","EPOCH":"2025-08-13T11:54:59.555232","MEAN_MOTION":15.02535374,"ECCENTRICITY":0.0001372,"INCLINATION":43.0039,"RA_OF_ASC_NODE":287.6649,"ARG_OF_PERICENTER":281.366,"MEAN_ANOMALY":78.7028,"EPHEMERIS_TYPE":0,"CLASSIFICATION_TYPE":"U","NORAD_CAT_ID":57355,"ELEMENT_SET_NO":999,"REV_AT_EPOCH":11494,"BSTAR":6.4657e-5,"MEAN_MOTION_DOT":6.7e-6,"MEAN_MOTION_DDOT":0},{"OBJECT_NAME":"STARLINK-6355","OBJECT_ID":"2023-099AE","EPOCH":"2025-08-13T11:35:48.038496","MEAN_MOTION":15.02537232,"ECCENTRICITY":0.0001504,"INCLINATION":43.0039,"RA_OF_ASC_NODE":287.5592,"ARG_OF_PERICENTER":273.9844,"MEAN_ANOMALY":86.0827,"EPHEMERIS_TYPE":0,"CLASSIFICATION_TYPE":"U","NORAD_CAT_ID":57356,"ELEMENT_SET_NO":999,"REV_AT_EPOCH":11494,"BSTAR":5.8968e-5,"MEAN_MOTION_DOT":5.93e-6,"MEAN_MOTION_DDOT":0},{"OBJECT_NAME":"STARLINK-5600","OBJECT_ID":"2023-099AF","EPOCH":"2025-08-13T13:22:43.743072","MEAN_MOTION":15.02537804,"ECCENTRICITY":0.0001318,"INCLINATION":43.0041,"RA_OF_ASC_NODE":287.2597,"ARG_OF_PERICENTER":271.2422,"MEAN_ANOMALY":88.8269,"EPHEMERIS_TYPE":0,"CLASSIFICATION_TYPE":"U","NORAD_CAT_ID":57357,"ELEMENT_SET_NO":999,"REV_AT_EPOCH":11495,"BSTAR":0.00010408,"MEAN_MOTION_DOT":1.203e-5,"MEAN_MOTION_DDOT":0},{"OBJECT_NAME":"STARLINK-6299","OBJECT_ID":"2023-099AG","EPOCH":"2025-08-13T11:27:49.733280","MEAN_MOTION":15.02534212,"ECCENTRICITY":0.0001298,"INCLINATION":43.003,"RA_OF_ASC_NODE":287.5217,"ARG_OF_PERICENTER":271.5426,"MEAN_ANOMALY":88.5267,"EPHEMERIS_TYPE":0,"CLASSIFICATION_TYPE":"U","NORAD_CAT_ID":57358,"ELEMENT_SET_NO":999,"REV_AT_EPOCH":11568,"BSTAR":0.00010299,"MEAN_MOTION_DOT":1.188e-5,"MEAN_MOTION_DDOT":0},{"OBJECT_NAME":"STARLINK-6347","OBJECT_ID":"2023-099AH","EPOCH":"2025-08-13T11:51:45.164736","MEAN_MOTION":15.02567344,"ECCENTRICITY":6.84e-5,"INCLINATION":43.0033,"RA_OF_ASC_NODE":287.6457,"ARG_OF_PERICENTER":283.8507,"MEAN_ANOMALY":76.2259,"EPHEMERIS_TYPE":0,"CLASSIFICATION_TYPE":"U","NORAD_CAT_ID":57359,"ELEMENT_SET_NO":999,"REV_AT_EPOCH":11494,"BSTAR":0.00038024,"MEAN_MOTION_DOT":4.941e-5,"MEAN_MOTION_DDOT":0},{"OBJECT_NAME":"STARLINK-6348","OBJECT_ID":"2023-099AJ","EPOCH":"2025-08-13T11:18:13.951584","MEAN_MOTION":15.02531891,"ECCENTRICITY":0.0001997,"INCLINATION":43.0063,"RA_OF_ASC_NODE":287.4707,"ARG_OF_PERICENTER":271.1884,"MEAN_ANOMALY":88.873,"EPHEMERIS_TYPE":0,"CLASSIFICATION_TYPE":"U","NORAD_CAT_ID":57360,"ELEMENT_SET_NO":999,"REV_AT_EPOCH":11494,"BSTAR":2.0184e-5,"MEAN_MOTION_DOT":6.9e-7,"MEAN_MOTION_DDOT":0},{"OBJECT_NAME":"STARLINK-6340","OBJECT_ID":"2023-099AK","EPOCH":"2025-08-13T13:06:44.020512","MEAN_MOTION":15.02538936,"ECCENTRICITY":0.000143,"INCLINATION":43.0034,"RA_OF_ASC_NODE":287.177,"ARG_OF_PERICENTER":272.6557,"MEAN_ANOMALY":87.4122,"EPHEMERIS_TYPE":0,"CLASSIFICATION_TYPE":"U","NORAD_CAT_ID":57361,"ELEMENT_SET_NO":999,"REV_AT_EPOCH":11495,"BSTAR":4.0603e-5,"MEAN_MOTION_DOT":3.45e-6,"MEAN_MOTION_DDOT":0},{"OBJECT_NAME":"STARLINK-6343","OBJECT_ID":"2023-099AL","EPOCH":"2025-08-13T11:13:25.865472","MEAN_MOTION":15.0253331,"ECCENTRICITY":0.0001251,"INCLINATION":43.0034,"RA_OF_ASC_NODE":287.4423,"ARG_OF_PERICENTER":268.6507,"MEAN_ANOMALY":91.4192,"EPHEMERIS_TYPE":0,"CLASSIFICATION_TYPE":"U","NORAD_CAT_ID":57362,"ELEMENT_SET_NO":999,"REV_AT_EPOCH":11494,"BSTAR":-1.0226e-5,"MEAN_MOTION_DOT":-3.42e-6,"MEAN_MOTION_DDOT":0},{"OBJECT_NAME":"STARLINK-6356","OBJECT_ID":"2023-099AM","EPOCH":"2025-08-13T11:23:00.965472","MEAN_MOTION":15.02538992,"ECCENTRICITY":0.0001392,"INCLINATION":43.0026,"RA_OF_ASC_NODE":287.4922,"ARG_OF_PERICENTER":274.38,"MEAN_ANOMALY":85.6883,"EPHEMERIS_TYPE":0,"CLASSIFICATION_TYPE":"U","NORAD_CAT_ID":57363,"ELEMENT_SET_NO":999,"REV_AT_EPOCH":11494,"BSTAR":4.2719e-5,"MEAN_MOTION_DOT":3.73e-6,"MEAN_MOTION_DDOT":0},{"OBJECT_NAME":"STARLINK-6338","OBJECT_ID":"2023-099AN","EPOCH":"2025-08-13T12:47:33.358272","MEAN_MOTION":15.02536626,"ECCENTRICITY":0.0001254,"INCLINATION":43.0042,"RA_OF_ASC_NODE":287.0724,"ARG_OF_PERICENTER":276.2863,"MEAN_ANOMALY":83.7837,"EPHEMERIS_TYPE":0,"CLASSIFICATION_TYPE":"U","NORAD_CAT_ID":57364,"ELEMENT_SET_NO":999,"REV_AT_EPOCH":11495,"BSTAR":5.5546e-5,"MEAN_MOTION_DOT":5.47e-6,"MEAN_MOTION_DDOT":0},{"OBJECT_NAME":"STARLINK-5007","OBJECT_ID":"2023-099AP","EPOCH":"2025-08-13T10:57:27.056160","MEAN_MOTION":15.02536024,"ECCENTRICITY":0.0001309,"INCLINATION":43.0043,"RA_OF_ASC_NODE":287.3531,"ARG_OF_PERICENTER":267.3762,"MEAN_ANOMALY":92.693,"EPHEMERIS_TYPE":0,"CLASSIFICATION_TYPE":"U","NORAD_CAT_ID":57365,"ELEMENT_SET_NO":999,"REV_AT_EPOCH":11494,"BSTAR":8.8612e-5,"MEAN_MOTION_DOT":9.94e-6,"MEAN_MOTION_DDOT":0},{"OBJECT_NAME":"STARLINK-6174","OBJECT_ID":"2023-099AQ","EPOCH":"2025-08-13T11:02:14.224704","MEAN_MOTION":15.0253681,"ECCENTRICITY":0.0001219,"INCLINATION":43.0033,"RA_OF_ASC_NODE":287.3838,"ARG_OF_PERICENTER":272.0129,"MEAN_ANOMALY":88.0574,"EPHEMERIS_TYPE":0,"CLASSIFICATION_TYPE":"U","NORAD_CAT_ID":57366,"ELEMENT_SET_NO":999,"REV_AT_EPOCH":11494,"BSTAR":6.5076e-5,"MEAN_MOTION_DOT":6.76e-6,"MEAN_MOTION_DDOT":0}]
